COSMOS 2564 [GLONASS-M] 
1 54377U 22161A   22361.58594159  .00000034  00000+0  00000+0 0  9993
2 54377  64.7748 234.9583 0006960 216.4620   1.5632  2.13102339   618
FREGAT R/B              
1 54378U 22161B   22332.88538517  .00000006  00000+0  00000+0 0  9990
2 54378  64.7543 235.8312 0069964  61.3586  78.3433  2.10629160    00
SHENZHOU-15             
1 54379U 22162A   22361.59836519  .00018040  00000+0  22093-3 0  9992
2 54379  41.4754 121.5407 0005083 227.4963 141.2347 15.59931730 95003
COSMOS 2565             
1 54381U 22163A   22362.09100910 -.00000140  00000+0 -46899-4 0  9996
2 54381  67.1558 306.9327 0006825 264.7832  95.2441 13.96673408  3823
SL-4 R/B                
1 54382U 22163B   22361.71492008  .00148307  87009-5  72367-3 0  9991
2 54382  67.1327 295.8637 0441474  67.4147 297.3074 15.08685153  4045
2022-163C               
1 54383U 22163C   22362.08199635  .00000001  00000+0  54454-4 0  9999
2 54383  67.1427 306.8790 0011739 311.5863  48.4215 13.97327419  3512
1998-067UL              
1 54534U 98067UL  22361.45237145  .00055002  00000+0  87860-3 0  9999
2 54534  51.6411  98.8935 0004712 223.0689 136.9932 15.52625226  3953
1998-067UM              
1 54535U 98067UM  22362.30444378  .00052550  00000+0  82845-3 0  9996
2 54535  51.6422  94.6239 0004363 226.5121 232.3232 15.53011946  4086
1998-067UN              
1 54536U 98067UN  22362.30824860  .00040868  00000+0  65892-3 0  9997
2 54536  51.6430  94.6478 0005348 221.2869 238.3324 15.52494029  4046
1998-067UP              
1 54537U 98067UP  22362.17337396  .00045470  00000+0  72571-3 0  9992
2 54537  51.6433  95.2918 0005024 226.2376 210.7875 15.52730391  4067
2022-164A               
1 54588U 22164A   22362.08335752  .00000718  00000+0  22023-3 0  9990
2 54588  98.3551  29.1090 0009065 210.3817 149.6848 14.44552335  3049
KZ-11 R/B               
1 54589U 22164B   22361.99959328  .00019918  22838-5  22356-3 0  9991
2 54589  98.3683  31.2705 0378754  35.1873 327.3761 15.08178668  3168
2022-165A               
1 54640U 22165A   22362.08507373  .00000502  00000+0  11964-3 0  9993
2 54640  98.1187 300.1469 0001066  93.9711 266.1618 14.57771149  2829
2022-165B               
1 54641U 22165B   22362.14073589  .00000527  00000+0  10569-3 0  9995
2 54641  98.0303 300.0759 0033546 239.9193 119.8689 14.65368831  2836
ONEWEB-0527             
1 54642U 22166A   22361.69975961  .00003063  00000+0  30530-3 0  9999
2 54642  86.5177 150.0555 0008934 165.5056 194.6429 14.91220781  3115
ONEWEB-0528             
1 54643U 22166B   22361.76708376  .00003174  00000+0  31662-3 0  9992
2 54643  86.5190 150.0289 0008889 165.8914 194.2563 14.91205589  3125
ONEWEB-0539             
1 54644U 22166C   22362.23330799 -.00002512  00000+0 -25460-3 0  9992
2 54644  86.5170 149.8135 0009767 159.4224 200.7399 14.91443875  3626
ONEWEB-0540             
1 54645U 22166D   22362.17113556  .00005070  00000+0  50860-3 0  9998
2 54645  86.5144 149.8408 0009127 163.0796 197.0738 14.91106200  3618
ONEWEB-0542             
1 54646U 22166E   22361.88613811 -.00001571  00000+0 -15651-3 0  9998
2 54646  86.5179 149.9578 0013427 173.7607 186.3791 14.92382771  3567
ONEWEB-0545             
1 54647U 22166F   22361.76777169  .00003109  00000+0  31050-3 0  9991
2 54647  86.5159 150.0218 0008792 167.3142 192.8308 14.91150726  3559
ONEWEB-0580             
1 54648U 22166G   22361.68827842  .00003070  00000+0  29877-3 0  9998
2 54648  86.5165 150.0474 0013181 171.8112 188.3334 14.92137794  3095
ONEWEB-0582             
1 54649U 22166H   22361.76148586  .00003153  00000+0  31090-3 0  9991
2 54649  86.5173 150.0192 0011050 164.8288 195.3273 14.91649401  3105
ONEWEB-0583             
1 54650U 22166J   22361.69247170  .00002515  00000+0  24638-3 0  9995
2 54650  86.5178 150.0507 0011699 164.9735 195.1843 14.91806449  3095
ONEWEB-0584             
1 54651U 22166K   22361.76044340  .00003105  00000+0  30538-3 0  9990
2 54651  86.5172 150.0187 0011368 165.1743 194.9821 14.91735523  3108
ONEWEB-0585             
1 54652U 22166L   22362.16651769  .00006800  00000+0  67667-3 0  9993
2 54652  86.5181 149.8464 0010106 162.2792 197.8790 14.91473142  3613
ONEWEB-0586             
1 54653U 22166M   22361.70330534  .00003091  00000+0  31032-3 0  9993
2 54653  86.5197 150.0623 0008209 172.6265 187.5084 14.90938761  3099
ONEWEB-0587             
1 54654U 22166N   22361.76216899 -.00004795  00000+0 -48191-3 0  9995
2 54654  86.5185 150.0265 0010771 164.6598 195.4958 14.91560143  3102
ONEWEB-0589             
1 54655U 22166P   22361.14919577  .00001006  00000+0  95389-4 0  9993
2 54655  86.5169 150.2844 0013298 176.2557 183.8773 14.92346923  3016
ONEWEB-0590             
1 54656U 22166Q   22361.55252831  .00003132  00000+0  30381-3 0  9994
2 54656  86.5164 150.1055 0013149 173.4362 186.7041 14.92268761  3072
ONEWEB-0591             
1 54657U 22166R   22361.68703294  .00003354  00000+0  32583-3 0  9995
2 54657  86.5195 150.0504 0013126 172.6217 187.5207 14.92237785  3536
ONEWEB-0592             
1 54658U 22166S   22362.08334491 -.00976647  00000+0 -13988+0 0  9990
2 54658  86.4555 149.8863 0008107 169.4646 321.6923 14.79790577  3593
ONEWEB-0593             
1 54659U 22166T   22361.55988014  .00003960  00000+0  39080-3 0  9990
2 54659  86.5185 150.1151 0011106 165.5950 194.5597 14.91680656  3074
ONEWEB-0594             
1 54660U 22166U   22361.68953794  .00003061  00000+0  29862-3 0  9992
2 54660  86.5178 150.0496 0012633 169.1696 190.9807 14.92037823  3091
ONEWEB-0595             
1 54661U 22166V   22361.55958912  .00003064  00000+0  30159-3 0  9990
2 54661  86.5186 150.1151 0011232 165.7373 194.4175 14.91700779  3079
ONEWEB-0596             
1 54662U 22166W   22361.76274995  .00003046  00000+0  30102-3 0  9994
2 54662  86.5172 150.0199 0010612 164.0516 196.1048 14.91549227  3109
ONEWEB-0597             
1 54663U 22166X   22361.82178139  .00003262  00000+0  31716-3 0  9997
2 54663  86.5163 149.9868 0013093 171.0575 189.0889 14.92191246  3119
ONEWEB-0600             
1 54664U 22166Y   22361.55171918  .00003190  00000+0  30897-3 0  9995
2 54664  86.5168 150.1059 0013297 174.4286 185.7093 14.92336767  3077
ONEWEB-0601             
1 54665U 22166Z   22361.82201555  .00003181  00000+0  30938-3 0  9993
2 54665  86.5193 149.9911 0013054 170.6293 189.5181 14.92172548  3116
ONEWEB-0602             
1 54666U 22166AA  22362.15795437  .00003001  00000+0  29208-3 0  9997
2 54666  86.5190 149.8422 0012966 168.6587 191.4936 14.92123473  3601
ONEWEB-0603             
1 54667U 22166AB  22362.25001157 -.00964515  00000+0 -14518+0 0  9990
2 54667  86.5429 149.8505 0009001 170.3430  99.5252 14.77649744  3619
ONEWEB-0604             
1 54668U 22166AC  22362.08334491 -.00950054  00000+0 -13242+0 0  9998
2 54668  86.4590 149.8950 0008290 168.1415 341.4443 14.80842140  3596
ONEWEB-0605             
1 54669U 22166AD  22362.08334491 -.01067993  00000+0 -16033+0 0  9992
2 54669  86.5447 149.9278 0007837 173.0370 279.4633 14.77590415  3596
ONEWEB-0606             
1 54670U 22166AE  22362.25001157 -.00848706  00000+0 -11639+0 0  9998
2 54670  86.4618 149.8197 0008722 167.1284 168.4180 14.81195134  3619
ONEWEB-0607             
1 54671U 22166AF  22362.25001157 -.00944921  00000+0 -12750+0 0  9990
2 54671  86.5500 149.8304 0008770 168.1808 187.1902 14.82171442  3625
ONEWEB-0608             
1 54672U 22166AG  22362.08334491 -.00936612  00000+0 -11822+0 0  9999
2 54672  86.5645 149.8966 0012634 167.3193  94.3328 14.84852662  3591
ONEWEB-0610             
1 54673U 22166AH  22362.08334491 -.00895837  00000+0 -11960+0 0  9996
2 54673  86.4663 149.8840 0009191 165.4759  13.4933 14.82454036  3598
ONEWEB-0611             
1 54674U 22166AJ  22362.08334491 -.00944819  00000+0 -12338+0 0  9992
2 54674  86.4718 149.8835 0011594 163.4330  67.1550 14.83493384  3598
ONEWEB-0612             
1 54675U 22166AK  22362.25001157 -.00869609  00000+0 -12299+0 0  9991
2 54675  86.4571 149.8220 0008142 170.6934 137.0975 14.79977975  3618
ONEWEB-0615             
1 54676U 22166AL  22362.08334491 -.00955468  00000+0 -12685+0 0  9991
2 54676  86.4684 149.8866 0010589 162.1238  47.1017 14.82855914  3598
ONEWEB-0655             
1 54677U 22166AM  22362.08334491 -.00928254  00000+0 -12269+0 0  9993
2 54677  86.4642 149.8790 0010282 164.0140  41.3186 14.82958769  3597
ONEWEB-0659             
1 54678U 22166AN  22361.76237554  .00002097  00000+0  20612-3 0  9991
2 54678  86.5172 150.0199 0010674 162.6394 197.5201 14.91585634  3559
ONEWEB-0685             
1 54679U 22166AP  22362.25001157 -.00827351  00000+0 -11737+0 0  9999
2 54679  86.4589 149.8229 0008361 171.4794 122.8820 14.79714111  3618
ONEWEB-0712             
1 54680U 22166AQ  22361.68873183  .00003108  00000+0  30270-3 0  9994
2 54680  86.5188 150.0500 0012830 169.9941 190.1545 14.92107598  3537
ONEWEB-0714             
1 54681U 22166AR  22361.88726410  .00003392  00000+0  32891-3 0  9993
2 54681  86.5191 149.9598 0013261 172.8022 187.3399 14.92315879  3569
2022-167A               
1 54682U 22167A   22362.17581339  .00009396  00000+0  59745-3 0  9994
2 54682  97.5355 136.8340 0014002 196.4685 289.4231 15.08950637  2850
2022-167B               
1 54683U 22167B   22362.21127269  .00038740  00000+0  43258-3 0  9995
2 54683  97.5879 137.9726 0201374 257.4774 100.4065 15.41731218  2899
CAS-5A (FO-118)         
1 54684U 22167C   22362.22594998  .00007200  00000+0  45829-3 0  9997
2 54684  97.5390 136.8924 0014199 198.4027 205.5713 15.08995251  2853
2022-167D               
1 54685U 22167D   22362.23201569  .00004687  00000+0  29540-3 0  9996
2 54685  97.5433 136.9278 0013111 210.9206 267.5743 15.09557530  2853
2022-167E               
1 54686U 22167E   22362.23210946  .00004647  00000+0  29296-3 0  9990
2 54686  97.5391 136.9172 0012750 211.4996 267.2641 15.09553279  2850
